{
  "type": "FeatureCollection",
  "features": [
    {
      "type": "Feature",
      "properties": {
        "norad_id": 41866,
        "name": "GOES 16",
        "group": "weather",
        "lat": 0.054249532766663354,
        "lon": -162.99517617902507,
        "alt_km": 35780.05820225482,
        "timestamp": "2025-12-09T14:52:25.808219+00:00",
        "meta_object_name": "GOES 16",
        "meta_object_id": "2016-071A",
        "meta_epoch": "2025-12-09T07:04:51.778272",
        "meta_mean_motion": 1.00270909,
        "meta_eccentricity": 0.00033994,
        "meta_inclination": 0.0693,
        "meta_ra_of_asc_node": 102.0245,
        "meta_arg_of_pericenter": 159.1988,
        "meta_mean_anomaly": 178.6091,
        "meta_ephemeris_type": 0,
        "meta_classification_type": "U",
        "meta_norad_cat_id": 41866,
        "meta_element_set_no": 999,
        "meta_rev_at_epoch": 3319,
        "meta_bstar": 0,
        "meta_mean_motion_dot": -8.9e-07,
        "meta_mean_motion_ddot": 0,
        "tle_line1": "1 41866U 16071A   25343.29504373 -.00000089  00000+0  00000+0 0  9996",
        "tle_line2": "2 41866   0.0693 102.0245 0003399 159.1988 178.6091  1.00270909 33190"
      },
      "geometry": {
        "type": "Point",
        "coordinates": [
          -162.99517617902507,
          0.054249532766663354
        ]
      }
    },
    {
      "type": "Feature",
      "properties": {
        "norad_id": 41882,
        "name": "FENGYUN 4A",
        "group": "weather",
        "lat": -0.5141819616971689,
        "lon": 65.54931899386803,
        "alt_km": 35804.8607985254,
        "timestamp": "2025-12-09T14:52:25.808231+00:00",
        "meta_object_name": "FENGYUN 4A",
        "meta_object_id": "2016-077A",
        "meta_epoch": "2025-12-08T17:16:38.775936",
        "meta_mean_motion": 1.00275455,
        "meta_eccentricity": 0.00049335,
        "meta_inclination": 1.839,
        "meta_ra_of_asc_node": 82.4323,
        "meta_arg_of_pericenter": 143.079,
        "meta_mean_anomaly": 235.2066,
        "meta_ephemeris_type": 0,
        "meta_classification_type": "U",
        "meta_norad_cat_id": 41882,
        "meta_element_set_no": 999,
        "meta_rev_at_epoch": 3302,
        "meta_bstar": 0,
        "meta_mean_motion_dot": -3.55e-06,
        "meta_mean_motion_ddot": 0,
        "tle_line1": "1 41882U 16077A   25342.71989324 -.00000355  00000+0  00000+0 0  9995",
        "tle_line2": "2 41882   1.8390  82.4323 0004933 143.0790 235.2066  1.00275455 33022"
      },
      "geometry": {
        "type": "Point",
        "coordinates": [
          65.54931899386803,
          -0.5141819616971689
        ]
      }
    },
    {
      "type": "Feature",
      "properties": {
        "norad_id": 41884,
        "name": "CYGFM05",
        "group": "weather",
        "lat": -26.481122861115665,
        "lon": -67.00842740781648,
        "alt_km": 424.265037535537,
        "timestamp": "2025-12-09T14:52:25.808242+00:00",
        "meta_object_name": "CYGFM05",
        "meta_object_id": "2016-078A",
        "meta_epoch": "2025-12-08T16:12:15.134688",
        "meta_mean_motion": 15.47410776,
        "meta_eccentricity": 0.00096392,
        "meta_inclination": 34.9598,
        "meta_ra_of_asc_node": 73.6774,
        "meta_arg_of_pericenter": 145.1655,
        "meta_mean_anomaly": 214.9699,
        "meta_ephemeris_type": 0,
        "meta_classification_type": "U",
        "meta_norad_cat_id": 41884,
        "meta_element_set_no": 999,
        "meta_rev_at_epoch": 49913,
        "meta_bstar": 0.00049402945,
        "meta_mean_motion_dot": 0.00026159,
        "meta_mean_motion_ddot": 0,
        "tle_line1": "1 41884U 16078A   25342.67517517  .00026159  00000+0  49403-3 0  9997",
        "tle_line2": "2 41884  34.9598  73.6774 0009639 145.1655 214.9699 15.47410776499131"
      },
      "geometry": {
        "type": "Point",
        "coordinates": [
          -67.00842740781648,
          -26.481122861115665
        ]
      }
    },
    {
      "type": "Feature",
      "properties": {
        "norad_id": 41885,
        "name": "CYGFM04",
        "group": "weather",
        "lat": 34.26495416839076,
        "lon": 119.78996011918149,
        "alt_km": 411.3516928892768,
        "timestamp": "2025-12-09T14:52:25.808264+00:00",
        "meta_object_name": "CYGFM04",
        "meta_object_id": "2016-078B",
        "meta_epoch": "2025-12-09T06:48:13.143744",
        "meta_mean_motion": 15.50135624,
        "meta_eccentricity": 0.00091013,
        "meta_inclination": 34.9354,
        "meta_ra_of_asc_node": 44.5806,
        "meta_arg_of_pericenter": 179.8308,
        "meta_mean_anomaly": 180.2418,
        "meta_ephemeris_type": 0,
        "meta_classification_type": "U",
        "meta_norad_cat_id": 41885,
        "meta_element_set_no": 999,
        "meta_rev_at_epoch": 49940,
        "meta_bstar": 0.00048651514,
        "meta_mean_motion_dot": 0.00028361,
        "meta_mean_motion_ddot": 0,
        "tle_line1": "1 41885U 16078B   25343.28348546  .00028361  00000+0  48652-3 0  9992",
        "tle_line2": "2 41885  34.9354  44.5806 0009101 179.8308 180.2418 15.50135624499402"
      },
      "geometry": {
        "type": "Point",
        "coordinates": [
          119.78996011918149,
          34.26495416839076
        ]
      }
    },
    {
      "type": "Feature",
      "properties": {
        "norad_id": 41886,
        "name": "CYGFM02",
        "group": "weather",
        "lat": 33.93244746106087,
        "lon": 115.22155804879394,
        "alt_km": 407.8982083361152,
        "timestamp": "2025-12-09T14:52:25.808277+00:00",
        "meta_object_name": "CYGFM02",
        "meta_object_id": "2016-078C",
        "meta_epoch": "2025-12-09T06:49:16.323744",
        "meta_mean_motion": 15.51499737,
        "meta_eccentricity": 0.0010779,
        "meta_inclination": 34.9441,
        "meta_ra_of_asc_node": 42.9464,
        "meta_arg_of_pericenter": 179.1583,
        "meta_mean_anomaly": 180.9159,
        "meta_ephemeris_type": 0,
        "meta_classification_type": "U",
        "meta_norad_cat_id": 41886,
        "meta_element_set_no": 999,
        "meta_rev_at_epoch": 49953,
        "meta_bstar": 0.00049378423,
        "meta_mean_motion_dot": 0.00030254,
        "meta_mean_motion_ddot": 0,
        "tle_line1": "1 41886U 16078C   25343.28421671  .00030254  00000+0  49378-3 0  9994",
        "tle_line2": "2 41886  34.9441  42.9464 0010779 179.1583 180.9159 15.51499737499535"
      },
      "geometry": {
        "type": "Point",
        "coordinates": [
          115.22155804879394,
          33.93244746106087
        ]
      }
    },
    {
      "type": "Feature",
      "properties": {
        "norad_id": 41887,
        "name": "CYGFM01",
        "group": "weather",
        "lat": -34.91428515521866,
        "lon": -21.62732396724794,
        "alt_km": 427.98460445574347,
        "timestamp": "2025-12-09T14:52:25.808288+00:00",
        "meta_object_name": "CYGFM01",
        "meta_object_id": "2016-078D",
        "meta_epoch": "2025-12-08T16:03:02.145312",
        "meta_mean_motion": 15.47982626,
        "meta_eccentricity": 0.00091843,
        "meta_inclination": 34.9428,
        "meta_ra_of_asc_node": 76.0976,
        "meta_arg_of_pericenter": 136.6674,
        "meta_mean_anomaly": 223.4771,
        "meta_ephemeris_type": 0,
        "meta_classification_type": "U",
        "meta_norad_cat_id": 41887,
        "meta_element_set_no": 999,
        "meta_rev_at_epoch": 49907,
        "meta_bstar": 0.00050735925,
        "meta_mean_motion_dot": 0.00027409,
        "meta_mean_motion_ddot": 0,
        "tle_line1": "1 41887U 16078D   25342.66877483  .00027409  00000+0  50736-3 0  9990",
        "tle_line2": "2 41887  34.9428  76.0976 0009184 136.6674 223.4771 15.47982626499075"
      },
      "geometry": {
        "type": "Point",
        "coordinates": [
          -21.62732396724794,
          -34.91428515521866
        ]
      }
    },
    {
      "type": "Feature",
      "properties": {
        "norad_id": 41888,
        "name": "CYGFM08",
        "group": "weather",
        "lat": -28.48809739392854,
        "lon": 1.9087097530975097,
        "alt_km": 425.87351056568605,
        "timestamp": "2025-12-09T14:52:25.808300+00:00",
        "meta_object_name": "CYGFM08",
        "meta_object_id": "2016-078E",
        "meta_epoch": "2025-12-09T05:50:15.035712",
        "meta_mean_motion": 15.4920492,
        "meta_eccentricity": 0.00111723,
        "meta_inclination": 34.9462,
        "meta_ra_of_asc_node": 55.3741,
        "meta_arg_of_pericenter": 167.1024,
        "meta_mean_anomaly": 192.9985,
        "meta_ephemeris_type": 0,
        "meta_classification_type": "U",
        "meta_norad_cat_id": 41888,
        "meta_element_set_no": 999,
        "meta_rev_at_epoch": 49939,
        "meta_bstar": 0.00048970472,
        "meta_mean_motion_dot": 0.00027641,
        "meta_mean_motion_ddot": 0,
        "tle_line1": "1 41888U 16078E   25343.24322958  .00027641  00000+0  48970-3 0  9993",
        "tle_line2": "2 41888  34.9462  55.3741 0011172 167.1024 192.9985 15.49204920499390"
      },
      "geometry": {
        "type": "Point",
        "coordinates": [
          1.9087097530975097,
          -28.48809739392854
        ]
      }
    }
  ]
}